CCSDS_OMM_VERS = 2.0
CREATION_DATE  = 
ORIGINATOR     = 

OBJECT_NAME    = DUPLEX
OBJECT_ID      = 1998-067XS
CENTER_NAME    = EARTH
REF_FRAME      = TEME
TIME_SYSTEM    = UTC
MEAN_ELEMENT_THEORY = SGP/SGP4

EPOCH          = 2026-01-20T04:16:49.826208
MEAN_MOTION    = 15.52751398
ECCENTRICITY   = .0002259
INCLINATION    = 51.6319
RA_OF_ASC_NODE = 311.4722
ARG_OF_PERICENTER = 35.3914
MEAN_ANOMALY   = 324.7225

EPHEMERIS_TYPE = 0
CLASSIFICATION_TYPE = U
NORAD_CAT_ID   = 66906
ELEMENT_SET_NO = 999
REV_AT_EPOCH   = 758
BSTAR          = .11019908E-2
MEAN_MOTION_DOT = .69533E-3
MEAN_MOTION_DDOT = 0

CCSDS_OMM_VERS = 2.0
CREATION_DATE  = 
ORIGINATOR     = 

OBJECT_NAME    = 1998-067XT
OBJECT_ID      = 1998-067XT
CENTER_NAME    = EARTH
REF_FRAME      = TEME
TIME_SYSTEM    = UTC
MEAN_ELEMENT_THEORY = SGP/SGP4

EPOCH          = 2026-01-20T04:15:26.184096
MEAN_MOTION    = 15.57203039
ECCENTRICITY   = .00034837
INCLINATION    = 51.6302
RA_OF_ASC_NODE = 310.7154
ARG_OF_PERICENTER = 92.4188
MEAN_ANOMALY   = 267.7202

EPHEMERIS_TYPE = 0
CLASSIFICATION_TYPE = U
NORAD_CAT_ID   = 66907
ELEMENT_SET_NO = 999
REV_AT_EPOCH   = 759
BSTAR          = .2016365E-2
MEAN_MOTION_DOT = .151925E-2
MEAN_MOTION_DDOT = 0

CCSDS_OMM_VERS = 2.0
CREATION_DATE  = 
ORIGINATOR     = 

OBJECT_NAME    = 1998-067XU
OBJECT_ID      = 1998-067XU
CENTER_NAME    = EARTH
REF_FRAME      = TEME
TIME_SYSTEM    = UTC
MEAN_ELEMENT_THEORY = SGP/SGP4

EPOCH          = 2026-01-20T04:14:25.622880
MEAN_MOTION    = 15.57121143
ECCENTRICITY   = .00033761
INCLINATION    = 51.6301
RA_OF_ASC_NODE = 310.7091
ARG_OF_PERICENTER = 86.9282
MEAN_ANOMALY   = 273.2096

EPHEMERIS_TYPE = 0
CLASSIFICATION_TYPE = U
NORAD_CAT_ID   = 66908
ELEMENT_SET_NO = 999
REV_AT_EPOCH   = 759
BSTAR          = .19102161E-2
MEAN_MOTION_DOT = .143304E-2
MEAN_MOTION_DDOT = 0

CCSDS_OMM_VERS = 2.0
CREATION_DATE  = 
ORIGINATOR     = 

OBJECT_NAME    = SILVERSAT
OBJECT_ID      = 1998-067XV
CENTER_NAME    = EARTH
REF_FRAME      = TEME
TIME_SYSTEM    = UTC
MEAN_ELEMENT_THEORY = SGP/SGP4

EPOCH          = 2026-01-20T00:53:32.449632
MEAN_MOTION    = 15.57887613
ECCENTRICITY   = .00036919
INCLINATION    = 51.6303
RA_OF_ASC_NODE = 311.2784
ARG_OF_PERICENTER = 97.1905
MEAN_ANOMALY   = 262.9507

EPHEMERIS_TYPE = 0
CLASSIFICATION_TYPE = U
NORAD_CAT_ID   = 66909
ELEMENT_SET_NO = 999
REV_AT_EPOCH   = 757
BSTAR          = .14363288E-2
MEAN_MOTION_DOT = .110318E-2
MEAN_MOTION_DDOT = 0

CCSDS_OMM_VERS = 2.0
CREATION_DATE  = 
ORIGINATOR     = 

OBJECT_NAME    = 1998-067XW
OBJECT_ID      = 1998-067XW
CENTER_NAME    = EARTH
REF_FRAME      = TEME
TIME_SYSTEM    = UTC
MEAN_ELEMENT_THEORY = SGP/SGP4

EPOCH          = 2026-01-20T00:57:51.354144
MEAN_MOTION    = 15.57379525
ECCENTRICITY   = .00022954
INCLINATION    = 51.6292
RA_OF_ASC_NODE = 311.2960
ARG_OF_PERICENTER = 74.4238
MEAN_ANOMALY   = 285.7007

EPHEMERIS_TYPE = 0
CLASSIFICATION_TYPE = U
NORAD_CAT_ID   = 66910
ELEMENT_SET_NO = 999
REV_AT_EPOCH   = 757
BSTAR          = .13812848E-2
MEAN_MOTION_DOT = .103966E-2
MEAN_MOTION_DDOT = 0

CCSDS_OMM_VERS = 2.0
CREATION_DATE  = 
ORIGINATOR     = 

OBJECT_NAME    = 1998-067XX
OBJECT_ID      = 1998-067XX
CENTER_NAME    = EARTH
REF_FRAME      = TEME
TIME_SYSTEM    = UTC
MEAN_ELEMENT_THEORY = SGP/SGP4

EPOCH          = 2026-01-20T00:29:49.123680
MEAN_MOTION    = 15.58787985
ECCENTRICITY   = .00023716
INCLINATION    = 51.6291
RA_OF_ASC_NODE = 311.1664
ARG_OF_PERICENTER = 99.7581
MEAN_ANOMALY   = 260.3679

EPHEMERIS_TYPE = 0
CLASSIFICATION_TYPE = U
NORAD_CAT_ID   = 66911
ELEMENT_SET_NO = 999
REV_AT_EPOCH   = 756
BSTAR          = .16236491E-2
MEAN_MOTION_DOT = .12938E-2
MEAN_MOTION_DDOT = 0

CCSDS_OMM_VERS = 2.0
CREATION_DATE  = 
ORIGINATOR     = 

OBJECT_NAME    = 1998-067XY
OBJECT_ID      = 1998-067XY
CENTER_NAME    = EARTH
REF_FRAME      = TEME
TIME_SYSTEM    = UTC
MEAN_ELEMENT_THEORY = SGP/SGP4

EPOCH          = 2026-01-20T04:49:55.936704
MEAN_MOTION    = 15.55558736
ECCENTRICITY   = .00030857
INCLINATION    = 51.6315
RA_OF_ASC_NODE = 310.8749
ARG_OF_PERICENTER = 70.5425
MEAN_ANOMALY   = 289.5900

EPHEMERIS_TYPE = 0
CLASSIFICATION_TYPE = U
NORAD_CAT_ID   = 66912
ELEMENT_SET_NO = 999
REV_AT_EPOCH   = 758
BSTAR          = .13837685E-2
MEAN_MOTION_DOT = .97246E-3
MEAN_MOTION_DDOT = 0

