DUPLEX                  
1 66906U 98067XS  26020.17835447  .00069533  00000+0  11020-2 0  9997
2 66906  51.6319 311.4722 0002259  35.3914 324.7225 15.52751398  7588
1998-067XT              
1 66907U 98067XT  26020.17738639  .00151925  00000+0  20164-2 0  9999
2 66907  51.6302 310.7154 0003483  92.4188 267.7202 15.57203039  7590
1998-067XU              
1 66908U 98067XU  26020.17668545  .00143304  00000+0  19102-2 0  9990
2 66908  51.6301 310.7091 0003376  86.9282 273.2096 15.57121143  7592
SILVERSAT               
1 66909U 98067XV  26020.03718113  .00110318  00000+0  14363-2 0  9996
2 66909  51.6303 311.2784 0003691  97.1905 262.9507 15.57887613  7577
1998-067XW              
1 66910U 98067XW  26020.04017771  .00103966  00000+0  13813-2 0  9991
2 66910  51.6292 311.2960 0002295  74.4238 285.7007 15.57379525  7574
1998-067XX              
1 66911U 98067XX  26020.02070745  .00129380  00000+0  16236-2 0  9990
2 66911  51.6291 311.1664 0002371  99.7581 260.3679 15.58787985  7567
1998-067XY              
1 66912U 98067XY  26020.20134186  .00097246  00000+0  13838-2 0  9991
2 66912  51.6315 310.8749 0003085  70.5425 289.5900 15.55558736  7581
